{"type":"FeatureCollection","metadata":{"source":"Natural Earth 1:50m admin-0 boundary lines (land), admin-0 countries (v5.1.2)","url":"https://www.naturalearthdata.com/","license":"Общественное достояние","generator":"tools/basemap.py","simplify_tolerance_deg":0.04,"note":"Нынешние сухопутные границы государств; between — коды ISO A3 двух стран, которые разделяет линия. На исторических картах — только как ориентир."},"features":[{"type":"Feature","properties":{"kind":"border","between":["CAN","USA"],"class":"International boundary (verify)"},"geometry":{"type":"LineString","coordinates":[[-124.76,48.49],[-123.86,48.26],[-123.39,48.25],[-123.14,48.4],[-123.24,48.64],[-123.01,48.79],[-123.31,48.99]]}},{"type":"Feature","properties":{"kind":"border","between":["BRA","URY"],"class":"International boundary (verify)"},"geometry":{"type":"LineString","coordinates":[[-53.37,-33.74],[-53.53,-33.66],[-53.53,-33.17],[-53.13,-32.74],[-53.16,-32.68],[-53.6,-32.4],[-53.76,-32.06],[-54.22,-31.86],[-54.59,-31.49],[-54.9,-31.39],[-55.04,-31.28],[-55.17,-31.28],[-55.56,-30.88],[-55.63,-30.86],[-55.81,-31.03]]}},{"type":"Feature","properties":{"kind":"border","between":["BOL","CHL"],"class":"International boundary (verify)"},"geometry":{"type":"LineString","coordinates":[[-69.51,-17.5],[-69.31,-17.94],[-69.09,-18.05],[-69.15,-18.14],[-68.97,-18.97],[-68.46,-19.43],[-68.7,-19.72],[-68.56,-19.97],[-68.6,-20.04],[-68.76,-20.09],[-68.69,-20.31],[-68.76,-20.42],[-68.48,-20.63],[-68.56,-20.72],[-68.56,-20.9],[-68.44,-20.95],[-68.2,-21.3],[-68.19,-21.62],[-68.08,-21.98],[-67.99,-22.06],[-67.88,-22.49],[-67.88,-22.82],[-67.58,-22.89],[-67.19,-22.82]]}},{"type":"Feature","properties":{"kind":"border","between":["CHL","PER"],"class":"International boundary (verify)"},"geometry":{"type":"LineString","coordinates":[[-69.51,-17.51],[-69.85,-17.7],[-69.8,-17.99],[-69.93,-18.21],[-70.18,-18.33],[-70.42,-18.35]]}},{"type":"Feature","properties":{"kind":"border","between":["BRA","GUY"],"class":"International boundary (verify)"},"geometry":{"type":"LineString","coordinates":[[-56.48,1.94],[-56.84,1.88],[-57.12,2.01],[-57.32,1.96],[-57.55,1.73],[-57.98,1.65],[-58.03,1.52],[-58.34,1.59],[-58.4,1.48],[-58.51,1.44],[-58.51,1.28],[-58.68,1.28],[-58.82,1.2],[-59.23,1.38],[-59.54,1.7],[-59.67,1.75],[-59.67,1.84],[-59.76,1.9],[-59.76,2.27],[-59.89,2.36],[-59.99,2.69],[-59.97,2.99],[-59.83,3.35],[-59.85,3.59],[-59.68,3.7],[-59.55,3.93],[-59.74,4.23],[-59.7,4.38],[-59.83,4.48],[-60.15,4.53],[-60.03,4.74],[-59.99,5.08],[-60.14,5.24],[-60.74,5.2]]}},{"type":"Feature","properties":{"kind":"border","between":["BRA","SUR"],"class":"International boundary (verify)"},"geometry":{"type":"LineString","coordinates":[[-54.62,2.33],[-54.72,2.44],[-54.88,2.45],[-54.98,2.6],[-55.39,2.44],[-55.73,2.41],[-55.96,2.52],[-56.14,2.26],[-55.92,2.04],[-55.93,1.89],[-56.02,1.84],[-56.48,1.94]]}},{"type":"Feature","properties":{"kind":"border","between":["BRA","FRA"],"class":"International boundary (verify)"},"geometry":{"type":"LineString","coordinates":[[-54.62,2.33],[-54.13,2.12],[-53.77,2.35],[-53.51,2.25],[-53.33,2.34],[-53.23,2.2],[-52.9,2.21],[-52.58,2.53],[-52.33,3.18],[-51.99,3.7],[-51.65,4.06]]}},{"type":"Feature","properties":{"kind":"border","between":["DOM","HTI"],"class":"International boundary (verify)"},"geometry":{"type":"LineString","coordinates":[[-71.78,19.72],[-71.71,19.49],[-71.75,19.29],[-71.65,19.16],[-71.81,18.99],[-71.74,18.73],[-71.87,18.61],[-72.0,18.6],[-71.76,18.34],[-71.77,18.04]]}},{"type":"Feature","properties":{"kind":"border","between":["GTM","SLV"],"class":"International boundary (verify)"},"geometry":{"type":"LineString","coordinates":[[-90.1,13.74],[-90.05,13.9],[-89.55,14.24],[-89.57,14.39],[-89.36,14.42]]}},{"type":"Feature","properties":{"kind":"border","between":["HND","SLV"],"class":"International boundary (verify)"},"geometry":{"type":"LineString","coordinates":[[-89.36,14.42],[-89.12,14.37],[-88.71,14.03],[-88.51,13.98],[-88.48,13.85],[-88.15,13.99],[-87.99,13.88],[-87.8,13.89],[-87.72,13.81],[-87.78,13.52],[-87.74,13.45],[-87.81,13.4]]}},{"type":"Feature","properties":{"kind":"border","between":["HND","NIC"],"class":"International boundary (verify)"},"geometry":{"type":"LineString","coordinates":[[-87.34,12.98],[-87.01,13.01],[-86.92,13.22],[-86.73,13.28],[-86.76,13.75],[-86.33,13.77],[-86.04,14.05],[-85.98,13.97],[-85.73,13.86],[-85.68,13.98],[-85.18,14.34],[-85.16,14.53],[-85.04,14.61],[-84.99,14.75],[-84.86,14.81],[-84.65,14.66],[-84.45,14.64],[-84.24,14.75],[-84.15,14.72],[-83.64,14.88],[-83.54,14.98],[-83.16,14.99]]}},{"type":"Feature","properties":{"kind":"border","between":["COL","ECU"],"class":"International boundary (verify)"},"geometry":{"type":"LineString","coordinates":[[-75.28,-0.11],[-75.78,0.09],[-76.07,0.35],[-76.27,0.44],[-76.39,0.4],[-76.43,0.26],[-76.49,0.24],[-76.83,0.25],[-77.4,0.39],[-77.47,0.64],[-77.65,0.72],[-77.7,0.84],[-77.83,0.83],[-78.18,0.97],[-78.86,1.46]]}},{"type":"Feature","properties":{"kind":"border","between":["GUY","SUR"],"class":"International boundary (verify)"},"geometry":{"type":"LineString","coordinates":[[-57.6,3.37],[-57.65,3.52],[-57.83,3.68],[-58.03,4.0],[-58.05,4.17],[-57.85,4.67],[-57.92,4.82],[-57.88,4.88],[-57.71,4.99],[-57.33,5.02],[-57.21,5.2],[-57.32,5.34],[-57.19,5.55]]}},{"type":"Feature","properties":{"kind":"border","between":["FRA","SUR"],"class":"International boundary (verify)"},"geometry":{"type":"LineString","coordinates":[[-54.08,3.33],[-53.99,3.59],[-54.35,4.05],[-54.48,4.84],[-54.45,5.01],[-54.16,5.36]]}},{"type":"Feature","properties":{"kind":"border","between":["ARG","URY"],"class":"International boundary (verify)"},"geometry":{"type":"LineString","coordinates":[[-58.41,-33.94],[-58.48,-33.65],[-58.38,-33.14],[-58.24,-33.11],[-58.13,-32.98],[-58.2,-32.47]]}},{"type":"Feature","properties":{"kind":"border","between":["ARG","URY"],"class":"International boundary (verify)"},"geometry":{"type":"LineString","coordinates":[[-57.61,-30.19],[-57.87,-30.59],[-57.81,-30.86],[-57.9,-30.98],[-57.89,-31.2],[-58.05,-31.49],[-57.99,-31.58],[-58.01,-31.68],[-58.19,-31.92],[-58.12,-32.25],[-58.2,-32.47]]}},{"type":"Feature","properties":{"kind":"border","between":["ARG","BRA"],"class":"International boundary (verify)"},"geometry":{"type":"LineString","coordinates":[[-54.62,-25.58],[-54.44,-25.62],[-54.15,-25.52],[-53.89,-25.67],[-53.67,-26.29],[-53.75,-26.75],[-53.72,-26.88],[-53.84,-27.12],[-54.16,-27.25],[-54.33,-27.42],[-54.83,-27.55],[-54.91,-27.71],[-55.1,-27.87],[-55.73,-28.2],[-55.69,-28.38],[-55.89,-28.37],[-56.94,-29.59],[-57.22,-29.78],[-57.41,-30.03],[-57.61,-30.19]]}},{"type":"Feature","properties":{"kind":"border","between":["GTM","HND"],"class":"International boundary (verify)"},"geometry":{"type":"LineString","coordinates":[[-88.23,15.73],[-88.96,15.15],[-89.14,15.07],[-89.22,14.87],[-89.17,14.61],[-89.36,14.42]]}},{"type":"Feature","properties":{"kind":"border","between":["COL","PAN"],"class":"International boundary (verify)"},"geometry":{"type":"LineString","coordinates":[[-77.37,8.66],[-77.48,8.5],[-77.2,7.97],[-77.35,7.84],[-77.35,7.71],[-77.54,7.57],[-77.59,7.54],[-77.76,7.7],[-77.74,7.54],[-77.9,7.23]]}},{"type":"Feature","properties":{"kind":"border","between":["GUY","VEN"],"class":"Disputed (please verify)"},"geometry":{"type":"LineString","coordinates":[[-60.74,5.2],[-61.39,5.94],[-61.13,6.21],[-61.2,6.59],[-61.15,6.69],[-60.87,6.79],[-60.72,6.77],[-60.35,7.0],[-60.35,7.15],[-60.58,7.16],[-60.63,7.21],[-60.61,7.32],[-60.72,7.54],[-60.51,7.81],[-60.38,7.83],[-60.03,8.05],[-59.96,8.19],[-59.85,8.25],[-59.83,8.31],[-60.02,8.55]]}},{"type":"Feature","properties":{"kind":"border","between":["BRA","VEN"],"class":"International boundary (verify)"},"geometry":{"type":"LineString","coordinates":[[-60.74,5.2],[-60.67,5.16],[-60.6,4.95],[-61.0,4.54],[-61.28,4.52],[-61.55,4.29],[-61.82,4.2],[-62.15,4.1],[-62.41,4.16],[-62.71,4.02],[-62.76,3.67],[-62.86,3.59],[-62.97,3.59],[-63.34,3.94],[-63.53,3.89],[-64.02,3.93],[-64.19,4.13],[-64.58,4.14],[-64.79,4.28],[-64.82,4.23],[-64.67,4.01],[-64.22,3.59],[-64.22,3.2],[-64.01,2.67],[-64.05,2.5],[-63.39,2.41],[-63.43,2.16],[-64.01,1.93],[-64.11,1.62],[-64.21,1.53],[-64.3,1.46],[-64.49,1.45],[-64.73,1.25],[-65.1,1.11],[-65.47,0.69],[-65.56,0.69],[-65.52,0.84],[-65.68,0.98],[-66.06,0.79],[-66.35,0.77],[-66.88,1.22]]}},{"type":"Feature","properties":{"kind":"border","between":["CRI","NIC"],"class":"International boundary (verify)"},"geometry":{"type":"LineString","coordinates":[[-84.35,10.98],[-84.7,11.05],[-84.91,10.95],[-85.58,11.19],[-85.74,11.06]]}},{"type":"Feature","properties":{"kind":"border","between":["CRI","PAN"],"class":"International boundary (verify)"},"geometry":{"type":"LineString","coordinates":[[-82.88,8.07],[-83.03,8.34],[-82.86,8.45],[-82.86,8.64],[-82.92,8.74],[-82.73,8.92],[-82.94,9.06],[-82.94,9.45],[-82.8,9.59],[-82.64,9.51],[-82.56,9.58]]}},{"type":"Feature","properties":{"kind":"border","between":["COL","VEN"],"class":"International boundary (verify)"},"geometry":{"type":"LineString","coordinates":[[-66.88,1.22],[-67.21,2.39],[-67.62,2.79],[-67.86,2.79],[-67.83,2.89],[-67.31,3.42],[-67.66,3.86],[-67.86,4.51],[-67.82,5.27],[-67.64,5.56],[-67.58,5.83],[-67.47,5.93],[-67.48,6.18],[-67.86,6.29],[-68.47,6.16],[-68.94,6.2],[-69.27,6.1],[-69.43,6.12],[-70.13,6.95],[-70.74,7.09],[-71.13,6.99],[-72.01,7.03],[-72.21,7.37],[-72.39,7.42],[-72.47,7.52],[-72.45,7.97],[-72.36,8.09],[-72.39,8.29],[-72.67,8.63],[-72.8,9.11],[-72.96,9.14],[-73.06,9.26],[-73.37,9.19],[-73.01,9.79],[-72.87,10.49],[-72.69,10.84],[-72.45,11.11],[-72.25,11.2],[-71.96,11.67],[-71.32,11.86]]}},{"type":"Feature","properties":{"kind":"border","between":["ARG","CHL"],"class":"International boundary (verify)"},"geometry":{"type":"LineString","coordinates":[[-68.44,-52.36],[-68.46,-52.29],[-69.96,-52.01],[-71.97,-51.96],[-71.95,-51.88],[-72.41,-51.54],[-72.3,-51.3],[-72.38,-51.1],[-72.28,-50.91],[-72.34,-50.68],[-72.51,-50.61],[-73.15,-50.74],[-73.31,-50.36],[-73.5,-50.13],[-73.48,-49.77]]}},{"type":"Feature","properties":{"kind":"border","between":["ARG","CHL"],"class":"International boundary (verify)"},"geometry":{"type":"LineString","coordinates":[[-68.63,-52.65],[-68.65,-54.92],[-68.06,-54.88],[-67.35,-54.93],[-66.48,-55.11]]}},{"type":"Feature","properties":{"kind":"border","between":["CAN","USA"],"class":"International boundary (verify)"},"geometry":{"type":"LineString","coordinates":[[-139.06,60.0],[-139.19,60.08],[-139.08,60.34],[-139.68,60.33],[-139.97,60.18],[-140.45,60.3],[-140.53,60.22],[-141.0,60.3],[-141.0,69.65]]}},{"type":"Feature","properties":{"kind":"border","between":["CAN","USA"],"class":"International boundary (verify)"},"geometry":{"type":"LineString","coordinates":[[-130.62,54.71],[-130.21,55.03],[-130.02,55.28],[-130.12,55.69],[-130.03,55.89],[-130.06,56.07],[-130.41,56.12],[-130.48,56.23],[-130.74,56.34],[-131.58,56.6],[-131.82,56.59],[-131.87,56.79],[-132.1,56.86],[-132.03,57.03],[-132.34,57.08],[-132.23,57.2],[-133.42,58.34],[-133.4,58.41],[-133.82,58.71],[-134.3,58.9],[-134.44,59.09],[-134.94,59.29],[-135.07,59.44],[-135.05,59.58],[-135.48,59.79],[-136.32,59.6],[-136.25,59.53],[-136.35,59.46],[-136.47,59.46],[-136.47,59.28],[-136.58,59.15],[-136.81,59.15],[-137.44,58.9],[-137.52,58.92],[-137.48,58.99],[-137.59,59.23],[-138.63,59.78],[-138.71,59.9],[-139.06,60.0]]}},{"type":"Feature","properties":{"kind":"border","between":["CAN","USA"],"class":"International boundary (verify)"},"geometry":{"type":"LineString","coordinates":[[-123.31,48.99],[-122.69,48.99]]}},{"type":"Feature","properties":{"kind":"border","between":["BLZ","GTM"],"class":"International boundary (verify)"},"geometry":{"type":"LineString","coordinates":[[-88.89,15.89],[-89.24,15.89],[-89.16,17.81]]}},{"type":"Feature","properties":{"kind":"border","between":["ECU","PER"],"class":"International boundary (verify)"},"geometry":{"type":"LineString","coordinates":[[-75.28,-0.11],[-75.48,-0.16],[-75.63,-0.12],[-75.26,-0.59],[-75.25,-0.95],[-75.41,-0.92],[-75.57,-1.53],[-76.09,-2.13],[-76.68,-2.56],[-77.86,-2.98],[-78.18,-3.35],[-78.16,-3.47],[-78.23,-3.49],[-78.35,-3.4],[-78.42,-3.78],[-78.68,-4.33],[-78.69,-4.56],[-78.91,-4.71],[-78.92,-4.86],[-79.03,-4.97],[-79.33,-4.93],[-79.5,-4.67],[-79.52,-4.54],[-79.64,-4.45],[-79.8,-4.48],[-80.14,-4.3],[-80.38,-4.46],[-80.48,-4.43],[-80.35,-4.21],[-80.49,-4.17],[-80.49,-4.01],[-80.3,-4.01],[-80.18,-3.88],[-80.32,-3.39]]}},{"type":"Feature","properties":{"kind":"border","between":["COL","PER"],"class":"International boundary (verify)"},"geometry":{"type":"LineString","coordinates":[[-69.97,-4.24],[-70.34,-3.81],[-70.53,-3.87],[-70.74,-3.78],[-70.07,-2.75],[-70.1,-2.66],[-70.97,-2.21],[-71.4,-2.33],[-71.75,-2.15],[-71.98,-2.33],[-72.22,-2.4],[-72.4,-2.43],[-72.63,-2.35],[-72.94,-2.39],[-73.15,-2.28],[-73.13,-2.08],[-73.2,-1.83],[-73.5,-1.69],[-73.52,-1.45],[-73.66,-1.25],[-74.25,-0.97],[-74.42,-0.58],[-74.8,-0.2],[-74.95,-0.19],[-75.14,-0.05],[-75.28,-0.11]]}},{"type":"Feature","properties":{"kind":"border","between":["BRA","COL"],"class":"International boundary (verify)"},"geometry":{"type":"LineString","coordinates":[[-66.88,1.22],[-67.08,1.19],[-67.12,1.7],[-67.4,2.12],[-67.56,2.07],[-67.82,1.79],[-67.94,1.75],[-68.19,1.99],[-68.26,1.85],[-68.18,1.72],[-69.32,1.72],[-69.54,1.77],[-69.85,1.71],[-69.85,1.06],[-69.31,1.05],[-69.16,0.86],[-69.15,0.66],[-69.28,0.63],[-69.47,0.73],[-70.05,0.58],[-70.07,-0.14],[-69.92,-0.32],[-69.63,-0.51],[-69.61,-0.76],[-69.45,-1.0],[-69.4,-1.19],[-69.97,-4.24]]}},{"type":"Feature","properties":{"kind":"border","between":["BOL","PER"],"class":"International boundary (verify)"},"geometry":{"type":"LineString","coordinates":[[-69.58,-10.95],[-68.69,-12.5],[-68.76,-12.69],[-68.98,-12.88],[-68.98,-13.5],[-69.07,-13.68],[-68.87,-14.17],[-69.0,-14.27],[-69.01,-14.38],[-69.36,-14.8],[-69.37,-14.96],[-69.17,-15.24],[-69.42,-15.64],[-69.22,-16.15],[-68.84,-16.34],[-69.03,-16.48],[-69.02,-16.64],[-69.2,-16.77],[-69.44,-17.09],[-69.62,-17.2],[-69.51,-17.5]]}},{"type":"Feature","properties":{"kind":"border","between":["BOL","BRA"],"class":"International boundary (verify)"},"geometry":{"type":"LineString","coordinates":[[-69.58,-10.95],[-68.85,-11.01],[-68.73,-11.12],[-68.62,-11.11],[-68.31,-10.98],[-68.07,-10.7],[-67.72,-10.68],[-67.42,-10.39],[-67.11,-10.27],[-66.58,-9.9],[-65.92,-9.79],[-65.56,-9.8],[-65.4,-9.71],[-65.31,-9.87],[-65.3,-10.15],[-65.45,-10.51],[-65.32,-11.02],[-65.39,-11.25],[-65.18,-11.65],[-65.19,-11.75],[-65.09,-11.74],[-64.99,-11.98],[-64.51,-12.25],[-64.42,-12.44],[-63.94,-12.53],[-63.69,-12.48],[-63.35,-12.68],[-63.07,-12.67],[-63.02,-12.81],[-62.77,-13.0],[-62.12,-13.16],[-61.79,-13.53],[-61.08,-13.49],[-60.51,-13.79],[-60.4,-14.02],[-60.47,-14.18],[-60.3,-14.62],[-60.27,-15.09],[-60.58,-15.1],[-60.24,-15.48],[-60.18,-16.27],[-58.54,-16.33],[-58.35,-16.28],[-58.35,-16.49],[-58.48,-16.7],[-58.4,-17.23],[-57.99,-17.51],[-57.83,-17.51],[-57.59,-18.12],[-57.5,-18.21],[-57.57,-18.28],[-57.78,-18.91],[-57.73,-18.92],[-57.72,-19.04],[-57.8,-19.08],[-58.13,-19.74],[-57.86,-19.98],[-58.16,-20.16]]}},{"type":"Feature","properties":{"kind":"border","between":["BRA","PER"],"class":"International boundary (verify)"},"geometry":{"type":"LineString","coordinates":[[-69.97,-4.24],[-70.05,-4.33],[-70.24,-4.3],[-70.4,-4.15],[-70.8,-4.17],[-70.97,-4.35],[-71.84,-4.5],[-72.35,-4.79],[-72.7,-5.07],[-72.89,-5.12],[-72.98,-5.63],[-73.24,-6.1],[-73.14,-6.47],[-73.76,-6.91],[-73.8,-7.08],[-73.72,-7.31],[-73.96,-7.38],[-74.0,-7.56],[-73.72,-7.78],[-73.78,-7.94],[-73.64,-8.07],[-73.55,-8.35],[-73.36,-8.48],[-73.3,-8.65],[-72.97,-8.99],[-72.97,-9.12],[-73.21,-9.41],[-72.81,-9.41],[-72.38,-9.51],[-72.17,-9.84],[-72.14,-10.01],[-71.24,-9.97],[-70.54,-9.44],[-70.64,-9.82],[-70.64,-11.01],[-70.53,-10.95],[-70.29,-11.06],[-69.96,-10.93],[-69.58,-10.95]]}},{"type":"Feature","properties":{"kind":"border","between":["BOL","PRY"],"class":"International boundary (verify)"},"geometry":{"type":"LineString","coordinates":[[-62.65,-22.23],[-62.28,-21.07],[-62.28,-20.56],[-61.92,-20.06],[-61.76,-19.65],[-60.01,-19.3],[-59.09,-19.29],[-58.18,-19.82],[-58.16,-20.16]]}},{"type":"Feature","properties":{"kind":"border","between":["MEX","USA"],"class":"International boundary (verify)"},"geometry":{"type":"LineString","coordinates":[[-117.13,32.53],[-114.72,32.72],[-114.84,32.51],[-111.04,31.32],[-108.21,31.33],[-108.21,31.78],[-106.45,31.77],[-106.15,31.45],[-104.92,30.58],[-104.68,30.13],[-104.62,29.85],[-104.4,29.57],[-103.26,29.0],[-103.09,29.04],[-102.89,29.22],[-102.73,29.64],[-102.34,29.86],[-101.99,29.8],[-101.55,29.81],[-101.38,29.74],[-100.75,29.18],[-100.33,28.5],[-100.3,28.33],[-99.75,27.73],[-99.51,27.55],[-99.46,27.06],[-99.23,26.76],[-99.11,26.45],[-98.28,26.11],[-97.8,26.04],[-97.38,25.87],[-97.15,25.96]]}},{"type":"Feature","properties":{"kind":"border","between":["GTM","MEX"],"class":"International boundary (verify)"},"geometry":{"type":"LineString","coordinates":[[-92.24,14.55],[-92.16,14.69],[-92.16,14.96],[-92.07,15.07],[-92.2,15.28],[-91.74,16.07],[-90.45,16.07],[-90.42,16.39],[-90.63,16.51],[-90.71,16.71],[-91.41,17.26],[-90.99,17.25],[-90.99,17.82],[-89.16,17.81],[-89.13,17.97],[-89.05,18.0],[-88.9,17.91],[-88.81,17.97],[-88.46,18.48],[-88.04,18.42],[-88.04,18.2],[-87.83,18.18]]}},{"type":"Feature","properties":{"kind":"border","between":["BRA","PRY"],"class":"International boundary (verify)"},"geometry":{"type":"LineString","coordinates":[[-54.62,-25.58],[-54.61,-25.43],[-54.44,-25.12],[-54.28,-24.31],[-54.32,-24.13],[-54.24,-24.05],[-54.63,-23.81],[-55.19,-24.02],[-55.42,-23.95],[-55.65,-22.89],[-55.62,-22.67],[-55.85,-22.31],[-56.25,-22.26],[-56.45,-22.08],[-56.63,-22.23],[-56.94,-22.27],[-57.57,-22.18],[-57.72,-22.1],[-57.96,-22.11],[-57.95,-21.49],[-57.83,-21.0],[-58.16,-20.16]]}},{"type":"Feature","properties":{"kind":"border","between":["ARG","PRY"],"class":"International boundary (verify)"},"geometry":{"type":"LineString","coordinates":[[-62.65,-22.23],[-62.21,-22.61],[-61.8,-23.18],[-61.21,-23.56],[-61.03,-23.76],[-60.51,-23.96],[-59.89,-24.09],[-59.19,-24.56],[-58.37,-24.96],[-57.96,-25.05],[-57.64,-25.33],[-57.57,-25.53],[-57.75,-25.7],[-57.89,-26.01],[-58.11,-26.18],[-58.2,-26.38],[-58.19,-26.63],[-58.32,-26.86],[-58.62,-27.13],[-58.6,-27.31],[-58.17,-27.27],[-57.11,-27.47],[-56.6,-27.47],[-56.44,-27.55],[-56.16,-27.32],[-55.71,-27.41],[-55.43,-27.01],[-55.14,-26.93],[-54.83,-26.65],[-54.68,-26.31],[-54.62,-25.58]]}},{"type":"Feature","properties":{"kind":"border","between":["ARG","BOL"],"class":"International boundary (verify)"},"geometry":{"type":"LineString","coordinates":[[-62.65,-22.23],[-62.84,-22.0],[-63.92,-22.03],[-64.27,-22.6],[-64.33,-22.83],[-64.61,-22.23],[-64.99,-22.11],[-65.77,-22.1],[-66.22,-21.8],[-66.37,-22.11],[-66.71,-22.22],[-66.8,-22.41],[-67.03,-22.55],[-67.19,-22.82]]}},{"type":"Feature","properties":{"kind":"border","between":["CRI","NIC"],"class":"International boundary (verify)"},"geometry":{"type":"LineString","coordinates":[[-84.35,10.98],[-84.17,10.78],[-83.92,10.74],[-83.71,10.79],[-83.64,10.92]]}},{"type":"Feature","properties":{"kind":"border","between":["CAN","USA"],"class":"International boundary (verify)"},"geometry":{"type":"LineString","coordinates":[[-122.69,48.99],[-95.16,48.99],[-95.16,49.37],[-94.85,49.3],[-94.8,49.0],[-94.62,48.74],[-94.06,48.66],[-93.71,48.53],[-93.38,48.62],[-93.0,48.61],[-92.5,48.44],[-92.41,48.28],[-92.17,48.34],[-92.01,48.3],[-91.52,48.06],[-90.92,48.21],[-90.74,48.1],[-90.09,48.12],[-89.9,48.0],[-89.46,48.0],[-88.38,48.3],[-84.88,46.9],[-84.78,46.64],[-84.56,46.46],[-84.15,46.54],[-84.09,46.23],[-83.98,46.08],[-83.62,46.12],[-83.47,45.99],[-83.59,45.82],[-82.55,45.35],[-82.14,43.57],[-82.41,43.07],[-82.55,42.62],[-83.07,42.3],[-83.15,42.14],[-83.14,41.98],[-83.03,41.83],[-82.69,41.68],[-82.44,41.67],[-81.28,42.21],[-80.25,42.37],[-79.04,42.8],[-78.92,42.91],[-79.03,43.02],[-79.06,43.28],[-79.17,43.47],[-78.85,43.58],[-76.82,43.63],[-76.46,44.06],[-76.15,44.3],[-75.0,44.97],[-71.52,45.01],[-71.33,45.29],[-71.13,45.26],[-71.0,45.34],[-70.87,45.27],[-70.8,45.4],[-70.69,45.43],[-70.7,45.55],[-70.42,45.74],[-70.3,45.91],[-70.25,46.25],[-70.07,46.44],[-70.01,46.71],[-69.24,47.46],[-69.05,47.43],[-69.05,47.27],[-68.94,47.21],[-68.24,47.35],[-67.81,47.08],[-67.8,45.73],[-67.43,45.6],[-67.49,45.47],[-67.43,45.38],[-67.47,45.28],[-67.37,45.17],[-67.12,45.17]]}},{"type":"Feature","properties":{"kind":"border","between":["GUY","SUR"],"class":"Disputed (please verify)"},"geometry":{"type":"LineString","coordinates":[[-56.48,1.94],[-56.7,2.04],[-57.2,2.85],[-57.3,3.38],[-57.6,3.37]]}},{"type":"Feature","properties":{"kind":"border","between":["FRA","SUR"],"class":"Disputed (please verify)"},"geometry":{"type":"LineString","coordinates":[[-54.62,2.33],[-54.4,2.46],[-54.2,2.82],[-54.2,3.14],[-54.08,3.33]]}},{"type":"Feature","properties":{"kind":"border","between":["BRA","URY"],"class":"Disputed (please verify)"},"geometry":{"type":"LineString","coordinates":[[-55.81,-31.03],[-56.0,-31.08],[-56.0,-30.85]]}},{"type":"Feature","properties":{"kind":"border","between":["BRA","URY"],"class":"International boundary (verify)"},"geometry":{"type":"LineString","coordinates":[[-56.0,-30.85],[-56.18,-30.63],[-56.83,-30.11],[-57.12,-30.14],[-57.21,-30.28],[-57.55,-30.26],[-57.61,-30.19]]}},{"type":"Feature","properties":{"kind":"border","between":["ARG","CHL"],"class":"Indefinite (please verify)"},"geometry":{"type":"LineString","coordinates":[[-73.48,-49.77],[-73.58,-49.58],[-73.46,-49.31],[-73.14,-49.3]]}},{"type":"Feature","properties":{"kind":"border","between":["ARG","CHL"],"class":"International boundary (verify)"},"geometry":{"type":"LineString","coordinates":[[-73.14,-49.3],[-73.15,-49.19],[-73.03,-49.01],[-72.65,-48.84],[-72.58,-48.48],[-72.35,-48.37],[-72.29,-48.23],[-72.33,-48.11],[-72.51,-47.97],[-72.52,-47.88],[-72.35,-47.49],[-72.04,-47.24],[-71.9,-47.2],[-71.96,-47.02],[-71.94,-46.83],[-71.7,-46.65],[-71.76,-46.32],[-71.88,-46.16],[-71.63,-45.95],[-71.75,-45.84],[-71.75,-45.58],[-71.51,-45.51],[-71.35,-45.33],[-71.35,-45.23],[-71.6,-44.98],[-72.04,-44.9],[-72.06,-44.77],[-71.26,-44.76],[-71.16,-44.56],[-71.21,-44.44],[-71.82,-44.38],[-71.81,-44.11],[-71.68,-43.93],[-71.79,-43.75],[-71.74,-43.7],[-71.75,-43.59],[-71.9,-43.44],[-71.9,-43.35],[-71.75,-43.24],[-71.78,-43.17],[-72.1,-43.07],[-72.14,-42.58],[-72.05,-42.47],[-72.11,-42.25],[-72.03,-42.15],[-71.86,-42.15],[-71.75,-42.05],[-71.91,-41.65],[-71.87,-40.89],[-71.94,-40.79],[-71.8,-40.44],[-71.7,-40.34],[-71.82,-40.18],[-71.66,-40.02],[-71.64,-39.89],[-71.72,-39.64],[-71.54,-39.6],[-71.42,-39.29],[-71.4,-38.94],[-70.95,-38.74],[-70.85,-38.54],[-70.97,-38.45],[-71.03,-38.04],[-71.17,-37.76],[-71.13,-37.45],[-71.2,-37.3],[-71.12,-37.11],[-71.19,-36.84],[-71.06,-36.52],[-70.75,-36.39],[-70.72,-36.28],[-70.4,-36.06],[-70.42,-35.52],[-70.56,-35.25],[-70.39,-35.15],[-70.29,-34.73],[-70.05,-34.3],[-69.85,-34.22],[-69.89,-33.73],[-69.8,-33.4],[-69.82,-33.28],[-70.02,-33.27],[-70.08,-33.2],[-70.09,-33.03],[-70.02,-32.88],[-70.12,-32.81],[-70.17,-32.47],[-70.32,-32.27],[-70.36,-32.08],[-70.25,-31.96],[-70.45,-31.84],[-70.59,-31.57],[-70.52,-31.15],[-70.39,-31.12],[-70.31,-31.02],[-70.35,-30.9],[-70.15,-30.36],[-69.96,-30.36],[-69.84,-30.18],[-69.96,-30.08],[-69.93,-29.77],[-70.03,-29.32],[-69.83,-29.1],[-69.66,-28.41],[-69.17,-27.92],[-68.85,-27.15],[-68.71,-27.1],[-68.59,-27.14],[-68.32,-26.97],[-68.32,-26.88],[-68.59,-26.47],[-68.58,-26.35],[-68.41,-26.15],[-68.59,-25.42],[-68.5,-25.16],[-68.38,-25.09],[-68.56,-24.84],[-68.56,-24.75],[-68.25,-24.39],[-67.36,-24.03],[-67.01,-23.0],[-67.19,-22.82]]}}]}